{"type": "FeatureCollection", "features": [ {"type": "Feature", "properties": {"norad_id": 33867, "name": "IRIDIUM 33 DEB", "group": "iridium-33-debris", "lat": -74.27902123377604, "lon": -172.0186260755382, "alt_km": 420.4998857640012, "timestamp": "2025-12-03T08:58:46.387192+00:00", "meta": {"OBJECT_NAME": "IRIDIUM 33 DEB", "OBJECT_ID": "1997-051AL", "EPOCH": "2025-12-03T01:42:14.527872", "MEAN_MOTION": 15.53496276, "ECCENTRICITY": 0.0012049, "INCLINATION": 86.3625, "RA_OF_ASC_NODE": 355.0733, "ARG_OF_PERICENTER": 100.6254, "MEAN_ANOMALY": 259.6365, "EPHEMERIS_TYPE": 0, "CLASSIFICATION_TYPE": "U", "NORAD_CAT_ID": 33867, "ELEMENT_SET_NO": 999, "REV_AT_EPOCH": 89360, "BSTAR": 0.0074943, "MEAN_MOTION_DOT": 0.00506591, "MEAN_MOTION_DDOT": 0}, "tle": {"line1": "1 33867U 97051AL  25337.07100148  .00506591  00000+0  74943-2 0  9994", "line2": "2 33867  86.3625 355.0733 0012049 100.6254 259.6365 15.53496276893609"}}, "geometry": {"type": "Point", "coordinates": [-172.0186260755382, -74.27902123377604]}}, {"type": "Feature", "properties": {"norad_id": 33870, "name": "IRIDIUM 33 DEB", "group": "iridium-33-debris", "lat": -30.29011766744964, "lon": -115.60352675428726, "alt_km": 731.0051963116912, "timestamp": "2025-12-03T08:58:46.387202+00:00", "meta": {"OBJECT_NAME": "IRIDIUM 33 DEB", "OBJECT_ID": "1997-051AP", "EPOCH": "2025-12-03T04:49:08.389056", "MEAN_MOTION": 14.45760529, "ECCENTRICITY": 0.0020475, "INCLINATION": 86.3757, "RA_OF_ASC_NODE": 62.349, "ARG_OF_PERICENTER": 209.9044, "MEAN_ANOMALY": 178.6407, "EPHEMERIS_TYPE": 0, "CLASSIFICATION_TYPE": "U", "NORAD_CAT_ID": 33870, "ELEMENT_SET_NO": 999, "REV_AT_EPOCH": 87999, "BSTAR": 0.0011974, "MEAN_MOTION_DOT": 4.273e-05, "MEAN_MOTION_DDOT": 0}, "tle": {"line1": "1 33870U 97051AP  25337.20079154  .00004273  00000+0  11974-2 0  9990", "line2": "2 33870  86.3757  62.3490 0020475 209.9044 178.6407 14.45760529879997"}}, "geometry": {"type": "Point", "coordinates": [-115.60352675428726, -30.29011766744964]}}, {"type": "Feature", "properties": {"norad_id": 33881, "name": "IRIDIUM 33 DEB", "group": "iridium-33-debris", "lat": 79.48171941600137, "lon": 130.70849165617554, "alt_km": 722.4598061642164, "timestamp": "2025-12-03T08:58:46.387214+00:00", "meta": {"OBJECT_NAME": "IRIDIUM 33 DEB", "OBJECT_ID": "1997-051BA", "EPOCH": "2025-12-02T21:39:24.291936", "MEAN_MOTION": 14.56279134, "ECCENTRICITY": 0.0061128, "INCLINATION": 86.3865, "RA_OF_ASC_NODE": 111.0151, "ARG_OF_PERICENTER": 206.5604, "MEAN_ANOMALY": 282.3625, "EPHEMERIS_TYPE": 0, "CLASSIFICATION_TYPE": "U", "NORAD_CAT_ID": 33881, "ELEMENT_SET_NO": 999, "REV_AT_EPOCH": 87357, "BSTAR": 0.0024856, "MEAN_MOTION_DOT": 0.00011311, "MEAN_MOTION_DDOT": 0}, "tle": {"line1": "1 33881U 97051BA  25336.90236449  .00011311  00000+0  24856-2 0  9994", "line2": "2 33881  86.3865 111.0151 0061128 206.5604 282.3625 14.56279134873572"}}, "geometry": {"type": "Point", "coordinates": [130.70849165617554, 79.48171941600137]}}, {"type": "Feature", "properties": {"norad_id": 33884, "name": "IRIDIUM 33 DEB", "group": "iridium-33-debris", "lat": 45.304353600889065, "lon": 17.72435725245634, "alt_km": 629.4859531989878, "timestamp": "2025-12-03T08:58:46.387225+00:00", "meta": {"OBJECT_NAME": "IRIDIUM 33 DEB", "OBJECT_ID": "1997-051BD", "EPOCH": "2025-12-03T02:24:03.792960", "MEAN_MOTION": 14.77130142, "ECCENTRICITY": 0.0010689, "INCLINATION": 86.3701, "RA_OF_ASC_NODE": 14.1694, "ARG_OF_PERICENTER": 359.2537, "MEAN_ANOMALY": 29.5165, "EPHEMERIS_TYPE": 0, "CLASSIFICATION_TYPE": "U", "NORAD_CAT_ID": 33884, "ELEMENT_SET_NO": 999, "REV_AT_EPOCH": 88705, "BSTAR": 0.0017256, "MEAN_MOTION_DOT": 0.0001224, "MEAN_MOTION_DDOT": 0}, "tle": {"line1": "1 33884U 97051BD  25337.10004390  .00012240  00000+0  17256-2 0  9996", "line2": "2 33884  86.3701  14.1694 0010689 359.2537  29.5165 14.77130142887052"}}, "geometry": {"type": "Point", "coordinates": [17.72435725245634, 45.304353600889065]}}, {"type": "Feature", "properties": {"norad_id": 33886, "name": "IRIDIUM 33 DEB", "group": "iridium-33-debris", "lat": -79.64177177173933, "lon": 50.92545544378229, "alt_km": 770.4592259621077, "timestamp": "2025-12-03T08:58:46.387235+00:00", "meta": {"OBJECT_NAME": "IRIDIUM 33 DEB", "OBJECT_ID": "1997-051BF", "EPOCH": "2025-12-02T18:50:03.765984", "MEAN_MOTION": 14.36031496, "ECCENTRICITY": 0.0012058, "INCLINATION": 86.3833, "RA_OF_ASC_NODE": 71.4183, "ARG_OF_PERICENTER": 279.8713, "MEAN_ANOMALY": 194.8492, "EPHEMERIS_TYPE": 0, "CLASSIFICATION_TYPE": "U", "NORAD_CAT_ID": 33886, "ELEMENT_SET_NO": 999, "REV_AT_EPOCH": 87909, "BSTAR": 0.00028159, "MEAN_MOTION_DOT": 8.38e-06, "MEAN_MOTION_DDOT": 0}, "tle": {"line1": "1 33886U 97051BF  25336.78476581  .00000838  00000+0  28159-3 0  9991", "line2": "2 33886  86.3833  71.4183 0012058 279.8713 194.8492 14.36031496879095"}}, "geometry": {"type": "Point", "coordinates": [50.92545544378229, -79.64177177173933]}}, {"type": "Feature", "properties": {"norad_id": 33887, "name": "IRIDIUM 33 DEB", "group": "iridium-33-debris", "lat": 3.4022700672236144, "lon": -172.79202879165797, "alt_km": 770.6162594415991, "timestamp": "2025-12-03T08:58:46.387246+00:00", "meta": {"OBJECT_NAME": "IRIDIUM 33 DEB", "OBJECT_ID": "1997-051BG", "EPOCH": "2025-12-03T03:25:59.530368", "MEAN_MOTION": 14.3720697, "ECCENTRICITY": 0.0004033, "INCLINATION": 86.3052, "RA_OF_ASC_NODE": 7.5276, "ARG_OF_PERICENTER": 272.7551, "MEAN_ANOMALY": 148.8319, "EPHEMERIS_TYPE": 0, "CLASSIFICATION_TYPE": "U", "NORAD_CAT_ID": 33887, "ELEMENT_SET_NO": 999, "REV_AT_EPOCH": 88027, "BSTAR": 0.00019308, "MEAN_MOTION_DOT": 5.94e-06, "MEAN_MOTION_DDOT": 0}, "tle": {"line1": "1 33887U 97051BG  25337.14305012  .00000594  00000+0  19308-3 0  9998", "line2": "2 33887  86.3052   7.5276 0004033 272.7551 148.8319 14.37206970880279"}}, "geometry": {"type": "Point", "coordinates": [-172.79202879165797, 3.4022700672236144]}}, {"type": "Feature", "properties": {"norad_id": 33953, "name": "IRIDIUM 33 DEB", "group": "iridium-33-debris", "lat": 34.89698154719063, "lon": -124.68373321836619, "alt_km": 693.9372456504807, "timestamp": "2025-12-03T08:58:46.387256+00:00", "meta": {"OBJECT_NAME": "IRIDIUM 33 DEB", "OBJECT_ID": "1997-051BN", "EPOCH": "2025-12-02T16:23:53.820384", "MEAN_MOTION": 14.55150368, "ECCENTRICITY": 0.0018426, "INCLINATION": 86.3853, "RA_OF_ASC_NODE": 58.1431, "ARG_OF_PERICENTER": 133.5713, "MEAN_ANOMALY": 354.392, "EPHEMERIS_TYPE": 0, "CLASSIFICATION_TYPE": "U", "NORAD_CAT_ID": 33953, "ELEMENT_SET_NO": 999, "REV_AT_EPOCH": 88157, "BSTAR": 0.0017185, "MEAN_MOTION_DOT": 7.461e-05, "MEAN_MOTION_DDOT": 0}, "tle": {"line1": "1 33953U 97051BN  25336.68326181  .00007461  00000+0  17185-2 0  9990", "line2": "2 33953  86.3853  58.1431 0018426 133.5713 354.3920 14.55150368881577"}}, "geometry": {"type": "Point", "coordinates": [-124.68373321836619, 34.89698154719063]}}, {"type": "Feature", "properties": {"norad_id": 33960, "name": "IRIDIUM 33 DEB", "group": "iridium-33-debris", "lat": 33.922520816018604, "lon": -63.5467728185635, "alt_km": 609.7442107421348, "timestamp": "2025-12-03T08:58:46.387268+00:00", "meta": {"OBJECT_NAME": "IRIDIUM 33 DEB", "OBJECT_ID": "1997-051BV", "EPOCH": "2025-12-03T04:01:29.493408", "MEAN_MOTION": 14.84361166, "ECCENTRICITY": 0.0007033, "INCLINATION": 86.2527, "RA_OF_ASC_NODE": 294.0241, "ARG_OF_PERICENTER": 74.9059, "MEAN_ANOMALY": 296.7867, "EPHEMERIS_TYPE": 0, "CLASSIFICATION_TYPE": "U", "NORAD_CAT_ID": 33960, "ELEMENT_SET_NO": 999, "REV_AT_EPOCH": 88725, "BSTAR": 0.0043684, "MEAN_MOTION_DOT": 0.00036868, "MEAN_MOTION_DDOT": 0}, "tle": {"line1": "1 33960U 97051BV  25337.16770247  .00036868  00000+0  43684-2 0  9994", "line2": "2 33960  86.2527 294.0241 0007033  74.9059 296.7867 14.84361166887257"}}, "geometry": {"type": "Point", "coordinates": [-63.5467728185635, 33.922520816018604]}}, {"type": "Feature", "properties": {"norad_id": 33966, "name": "IRIDIUM 33 DEB", "group": "iridium-33-debris", "lat": 77.17499356101534, "lon": -146.03901876296092, "alt_km": 722.2846683547214, "timestamp": "2025-12-03T08:58:46.387278+00:00", "meta": {"OBJECT_NAME": "IRIDIUM 33 DEB", "OBJECT_ID": "1997-051CB", "EPOCH": "2025-12-03T03:37:07.733280", "MEAN_MOTION": 14.49525905, "ECCENTRICITY": 0.0006365, "INCLINATION": 86.3933, "RA_OF_ASC_NODE": 50.1415, "ARG_OF_PERICENTER": 222.9834, "MEAN_ANOMALY": 154.5391, "EPHEMERIS_TYPE": 0, "CLASSIFICATION_TYPE": "U", "NORAD_CAT_ID": 33966, "ELEMENT_SET_NO": 999, "REV_AT_EPOCH": 88303, "BSTAR": 0.00080992, "MEAN_MOTION_DOT": 3.124e-05, "MEAN_MOTION_DDOT": 0}, "tle": {"line1": "1 33966U 97051CB  25337.15078395  .00003124  00000+0  80992-3 0  9997", "line2": "2 33966  86.3933  50.1415 0006365 222.9834 154.5391 14.49525905883031"}}, "geometry": {"type": "Point", "coordinates": [-146.03901876296092, 77.17499356101534]}}, {"type": "Feature", "properties": {"norad_id": 34071, "name": "IRIDIUM 33 DEB", "group": "iridium-33-debris", "lat": 6.657887806702223, "lon": -158.52825504660498, "alt_km": 724.6577478611716, "timestamp": "2025-12-03T08:58:46.387288+00:00", "meta": {"OBJECT_NAME": "IRIDIUM 33 DEB", "OBJECT_ID": "1997-051CE", "EPOCH": "2025-12-03T03:12:46.088064", "MEAN_MOTION": 14.49393252, "ECCENTRICITY": 0.0009475, "INCLINATION": 86.3467, "RA_OF_ASC_NODE": 22.0034, "ARG_OF_PERICENTER": 133.6126, "MEAN_ANOMALY": 226.5866, "EPHEMERIS_TYPE": 0, "CLASSIFICATION_TYPE": "U", "NORAD_CAT_ID": 34071, "ELEMENT_SET_NO": 999, "REV_AT_EPOCH": 88195, "BSTAR": 0.00081893, "MEAN_MOTION_DOT": 3.151e-05, "MEAN_MOTION_DDOT": 0}, "tle": {"line1": "1 34071U 97051CE  25337.13386676  .00003151  00000+0  81893-3 0  9998", "line2": "2 34071  86.3467  22.0034 0009475 133.6126 226.5866 14.49393252881957"}}, "geometry": {"type": "Point", "coordinates": [-158.52825504660498, 6.657887806702223]}}]}